{
  "norad_id": 61981,
  "name": "STARLINK-32522",
  "history": [
    {
      "epoch": "2026-03-28T16:06:18.450432Z",
      "apogee_km": 483.65961035416603,
      "perigee_km": 482.46809421415855,
      "latitude_deg": -1.4311932745788548e-05,
      "longitude_deg": 4.9005581116050205,
      "height_km": 482.5164208309676,
      "semi_major_axis_km": 6861.200852284162,
      "eccentricity": 8.683e-05,
      "inclination_deg": 42.9959,
      "raan_deg": 72.5656,
      "arg_perigee_deg": 57.3233,
      "mean_anomaly_deg": 302.7702,
      "mean_motion_rev_day": 15.27575072
    },
    {
      "epoch": "2026-03-28T23:57:04.658976Z",
      "apogee_km": 483.24868229593994,
      "perigee_km": 482.74233071695926,
      "latitude_deg": -5.017204680159295e-06,
      "longitude_deg": -114.96319841454834,
      "height_km": 482.6971043502029,
      "semi_major_axis_km": 6861.132506506449,
      "eccentricity": 3.69e-05,
      "inclination_deg": 42.9961,
      "raan_deg": 70.7166,
      "arg_perigee_deg": 286.9326,
      "mean_anomaly_deg": 73.1485,
      "mean_motion_rev_day": 15.27597897
    },
    {
      "epoch": "2026-03-29T23:29:25.202688Z",
      "apogee_km": 483.2002880478294,
      "perigee_km": 482.7831314222776,
      "latitude_deg": 2.7160284872200486e-05,
      "longitude_deg": -114.55487642356469,
      "height_km": 482.94584814391874,
      "semi_major_axis_km": 6861.128709735053,
      "eccentricity": 3.04e-05,
      "inclination_deg": 43.0029,
      "raan_deg": 65.1772,
      "arg_perigee_deg": 211.2699,
      "mean_anomaly_deg": 148.8135,
      "mean_motion_rev_day": 15.27599165
    },
    {
      "epoch": "2026-03-29T23:29:25.203552Z",
      "apogee_km": 483.2004252704046,
      "perigee_km": 482.78299419970335,
      "latitude_deg": 2.799924046218019e-05,
      "longitude_deg": -114.5548791388519,
      "height_km": 482.9459654130262,
      "semi_major_axis_km": 6861.128709735053,
      "eccentricity": 3.042e-05,
      "inclination_deg": 43.0029,
      "raan_deg": 65.1772,
      "arg_perigee_deg": 211.2699,
      "mean_anomaly_deg": 148.8135,
      "mean_motion_rev_day": 15.27599165
    },
    {
      "epoch": "2026-03-30T08:54:21.248928Z",
      "apogee_km": 483.682644373177,
      "perigee_km": 482.35569676978866,
      "latitude_deg": 9.241266121329255e-06,
      "longitude_deg": 101.60879525468384,
      "height_km": 483.0430529086027,
      "semi_major_axis_km": 6861.156170571482,
      "eccentricity": 9.67e-05,
      "inclination_deg": 43.0021,
      "raan_deg": 62.9611,
      "arg_perigee_deg": 248.1047,
      "mean_anomaly_deg": 111.9702,
      "mean_motion_rev_day": 15.27589994
    },
    {
      "epoch": "2026-03-30T23:01:45.887232Z",
      "apogee_km": 484.0219801445155,
      "perigee_km": 482.04747214516647,
      "latitude_deg": 4.1137288287811974e-05,
      "longitude_deg": -114.14766162709584,
      "height_km": 482.9489078462589,
      "semi_major_axis_km": 6861.171726144841,
      "eccentricity": 0.00014389,
      "inclination_deg": 43.0042,
      "raan_deg": 59.6373,
      "arg_perigee_deg": 262.0225,
      "mean_anomaly_deg": 98.0464,
      "mean_motion_rev_day": 15.27584799
    }
  ]
}